[
  {
    "OBJECT_NAME": "STARLINK-3838",
    "OBJECT_ID": "22045X",
    "EPOCH": "2025-11-11T07:32:29.845248",
    "MEAN_MOTION": 15.08842125,
    "ECCENTRICITY": 0.0001433,
    "INCLINATION": 53.2185,
    "RA_OF_ASC_NODE": 10.5237,
    "ARG_OF_PERICENTER": 109.6611,
    "MEAN_ANOMALY": 250.4536,
    "EPHEMERIS_TYPE": 0,
    "CLASSIFICATION_TYPE": "U",
    "NORAD_CAT_ID": 52352,
    "ELEMENT_SET_NO": 999,
    "REV_AT_EPOCH": 19791,
    "BSTAR": 2.9184e-05,
    "MEAN_MOTION_DOT": 1.77e-06,
    "MEAN_MOTION_DDOT": 0.0,
    "TLE_LINE1": "1 52352U 22045X   25315.31423432  .00000177  00000+0  29184-4 0  9990",
    "TLE_LINE2": "2 52352  53.2185  10.5237 0001433 109.6611 250.4536 15.08842125197914",
    "COMMENT": "Grouped by shell and plane from TLE"
  },
  {
    "OBJECT_NAME": "STARLINK-3807",
    "OBJECT_ID": "22045Y",
    "EPOCH": "2025-11-11T04:32:19.793472",
    "MEAN_MOTION": 15.08838979,
    "ECCENTRICITY": 0.0001146,
    "INCLINATION": 53.2184,
    "RA_OF_ASC_NODE": 11.0887,
    "ARG_OF_PERICENTER": 87.844,
    "MEAN_ANOMALY": 272.2683,
    "EPHEMERIS_TYPE": 0,
    "CLASSIFICATION_TYPE": "U",
    "NORAD_CAT_ID": 52353,
    "ELEMENT_SET_NO": 999,
    "REV_AT_EPOCH": 19789,
    "BSTAR": 7.2644e-05,
    "MEAN_MOTION_DOT": 8.68e-06,
    "MEAN_MOTION_DDOT": 0.0,
    "TLE_LINE1": "1 52353U 22045Y   25315.18911798  .00000868  00000+0  72644-4 0  9999",
    "TLE_LINE2": "2 52353  53.2184  11.0887 0001146  87.8440 272.2683 15.08838979197893",
    "COMMENT": "Grouped by shell and plane from TLE"
  },
  {
    "OBJECT_NAME": "STARLINK-3877",
    "OBJECT_ID": "22045AA",
    "EPOCH": "2025-11-11T02:51:38.008224",
    "MEAN_MOTION": 15.08860401,
    "ECCENTRICITY": 0.0001359,
    "INCLINATION": 53.2186,
    "RA_OF_ASC_NODE": 11.4033,
    "ARG_OF_PERICENTER": 83.6921,
    "MEAN_ANOMALY": 276.4226,
    "EPHEMERIS_TYPE": 0,
    "CLASSIFICATION_TYPE": "U",
    "NORAD_CAT_ID": 52355,
    "ELEMENT_SET_NO": 999,
    "REV_AT_EPOCH": 19788,
    "BSTAR": 0.0,
    "MEAN_MOTION_DOT": -3.837e-05,
    "MEAN_MOTION_DDOT": 0.0,
    "TLE_LINE1": "1 52355U 22045AA  25315.11918991 -.00003837  00000+0 -22299-3 0  9997",
    "TLE_LINE2": "2 52355  53.2186  11.4033 0001359  83.6921 276.4226 15.08860401197881",
    "COMMENT": "Grouped by shell and plane from TLE"
  },
  {
    "OBJECT_NAME": "STARLINK-3801",
    "OBJECT_ID": "22045AB",
    "EPOCH": "2025-11-11T07:21:54.486432",
    "MEAN_MOTION": 15.08839313,
    "ECCENTRICITY": 0.0001424,
    "INCLINATION": 53.2181,
    "RA_OF_ASC_NODE": 10.5873,
    "ARG_OF_PERICENTER": 91.7553,
    "MEAN_ANOMALY": 268.3602,
    "EPHEMERIS_TYPE": 0,
    "CLASSIFICATION_TYPE": "U",
    "NORAD_CAT_ID": 52356,
    "ELEMENT_SET_NO": 999,
    "REV_AT_EPOCH": 19791,
    "BSTAR": 7.0358e-05,
    "MEAN_MOTION_DOT": 8.32e-06,
    "MEAN_MOTION_DDOT": 0.0,
    "TLE_LINE1": "1 52356U 22045AB  25315.30688063  .00000832  00000+0  70358-4 0  9993",
    "TLE_LINE2": "2 52356  53.2181  10.5873 0001424  91.7553 268.3602 15.08839313197913",
    "COMMENT": "Grouped by shell and plane from TLE"
  },
  {
    "OBJECT_NAME": "STARLINK-3821",
    "OBJECT_ID": "22045AC",
    "EPOCH": "2025-11-11T07:27:12.377088",
    "MEAN_MOTION": 15.08764405,
    "ECCENTRICITY": 0.0001703,
    "INCLINATION": 53.218,
    "RA_OF_ASC_NODE": 10.5431,
    "ARG_OF_PERICENTER": 96.9145,
    "MEAN_ANOMALY": 263.2041,
    "EPHEMERIS_TYPE": 0,
    "CLASSIFICATION_TYPE": "U",
    "NORAD_CAT_ID": 52357,
    "ELEMENT_SET_NO": 999,
    "REV_AT_EPOCH": 19791,
    "BSTAR": 0.0010095,
    "MEAN_MOTION_DOT": 0.00015782,
    "MEAN_MOTION_DDOT": 0.0,
    "TLE_LINE1": "1 52357U 22045AC  25315.31055992  .00015782  00000+0  10095-2 0  9994",
    "TLE_LINE2": "2 52357  53.2180  10.5431 0001703  96.9145 263.2041 15.08764405197917",
    "COMMENT": "Grouped by shell and plane from TLE"
  },
  {
    "OBJECT_NAME": "STARLINK-3837",
    "OBJECT_ID": "22045AD",
    "EPOCH": "2025-11-11T03:49:56.054784",
    "MEAN_MOTION": 15.08846874,
    "ECCENTRICITY": 0.0001391,
    "INCLINATION": 53.2164,
    "RA_OF_ASC_NODE": 11.2222,
    "ARG_OF_PERICENTER": 91.495,
    "MEAN_ANOMALY": 268.6202,
    "EPHEMERIS_TYPE": 0,
    "CLASSIFICATION_TYPE": "U",
    "NORAD_CAT_ID": 52358,
    "ELEMENT_SET_NO": 999,
    "REV_AT_EPOCH": 19789,
    "BSTAR": 1.4497e-05,
    "MEAN_MOTION_DOT": -5.7e-07,
    "MEAN_MOTION_DDOT": 0.0,
    "TLE_LINE1": "1 52358U 22045AD  25315.15967656 -.00000057  00000+0  14497-4 0  9998",
    "TLE_LINE2": "2 52358  53.2164  11.2222 0001391  91.4950 268.6202 15.08846874197899",
    "COMMENT": "Grouped by shell and plane from TLE"
  },
  {
    "OBJECT_NAME": "STARLINK-3853",
    "OBJECT_ID": "22045AE",
    "EPOCH": "2025-11-11T07:23:16.733184",
    "MEAN_MOTION": 15.08843435,
    "ECCENTRICITY": 0.0001351,
    "INCLINATION": 53.2175,
    "RA_OF_ASC_NODE": 10.5653,
    "ARG_OF_PERICENTER": 95.1892,
    "MEAN_ANOMALY": 264.9255,
    "EPHEMERIS_TYPE": 0,
    "CLASSIFICATION_TYPE": "U",
    "NORAD_CAT_ID": 52359,
    "ELEMENT_SET_NO": 999,
    "REV_AT_EPOCH": 19791,
    "BSTAR": 9.5017e-05,
    "MEAN_MOTION_DOT": 1.225e-05,
    "MEAN_MOTION_DDOT": 0.0,
    "TLE_LINE1": "1 52359U 22045AE  25315.30783256  .00001225  00000+0  95017-4 0  9992",
    "TLE_LINE2": "2 52359  53.2175  10.5653 0001351  95.1892 264.9255 15.08843435197914",
    "COMMENT": "Grouped by shell and plane from TLE"
  },
  {
    "OBJECT_NAME": "STARLINK-3728",
    "OBJECT_ID": "22045AG",
    "EPOCH": "2025-11-11T07:11:18.636864",
    "MEAN_MOTION": 15.0886482,
    "ECCENTRICITY": 0.0001519,
    "INCLINATION": 53.2159,
    "RA_OF_ASC_NODE": 10.5922,
    "ARG_OF_PERICENTER": 83.1036,
    "MEAN_ANOMALY": 277.0129,
    "EPHEMERIS_TYPE": 0,
    "CLASSIFICATION_TYPE": "U",
    "NORAD_CAT_ID": 52361,
    "ELEMENT_SET_NO": 999,
    "REV_AT_EPOCH": 19791,
    "BSTAR": 0.00072103,
    "MEAN_MOTION_DOT": 0.00011214,
    "MEAN_MOTION_DDOT": 0.0,
    "TLE_LINE1": "1 52361U 22045AG  25315.29952126  .00011214  00000+0  72103-3 0  9996",
    "TLE_LINE2": "2 52361  53.2159  10.5922 0001519  83.1036 277.0129 15.08864820197917",
    "COMMENT": "Grouped by shell and plane from TLE"
  },
  {
    "OBJECT_NAME": "STARLINK-3830",
    "OBJECT_ID": "22045AJ",
    "EPOCH": "2025-11-11T07:06:00.309888",
    "MEAN_MOTION": 15.0884535,
    "ECCENTRICITY": 0.0001611,
    "INCLINATION": 53.2173,
    "RA_OF_ASC_NODE": 10.609,
    "ARG_OF_PERICENTER": 97.4357,
    "MEAN_ANOMALY": 262.6819,
    "EPHEMERIS_TYPE": 0,
    "CLASSIFICATION_TYPE": "U",
    "NORAD_CAT_ID": 52363,
    "ELEMENT_SET_NO": 999,
    "REV_AT_EPOCH": 19791,
    "BSTAR": 0.0,
    "MEAN_MOTION_DOT": -1.45e-05,
    "MEAN_MOTION_DDOT": 0.0,
    "TLE_LINE1": "1 52363U 22045AJ  25315.29583692 -.00001450  00000+0 -73003-4 0  9990",
    "TLE_LINE2": "2 52363  53.2173  10.6090 0001611  97.4357 262.6819 15.08845350197912",
    "COMMENT": "Grouped by shell and plane from TLE"
  },
  {
    "OBJECT_NAME": "STARLINK-4391",
    "OBJECT_ID": "22084A",
    "EPOCH": "2025-11-11T03:05:03.911136",
    "MEAN_MOTION": 15.05652841,
    "ECCENTRICITY": 0.0001601,
    "INCLINATION": 97.6048,
    "RA_OF_ASC_NODE": 14.3038,
    "ARG_OF_PERICENTER": 99.8057,
    "MEAN_ANOMALY": 260.335,
    "EPHEMERIS_TYPE": 0,
    "CLASSIFICATION_TYPE": "U",
    "NORAD_CAT_ID": 53189,
    "ELEMENT_SET_NO": 999,
    "REV_AT_EPOCH": 18221,
    "BSTAR": 9.6897e-05,
    "MEAN_MOTION_DOT": 1.338e-05,
    "MEAN_MOTION_DDOT": 0.0,
    "TLE_LINE1": "1 53189U 22084A   25315.12851749  .00001338  00000+0  96897-4 0  9992",
    "TLE_LINE2": "2 53189  97.6048  14.3038 0001601  99.8057 260.3350 15.05652841182217",
    "COMMENT": "Grouped by shell and plane from TLE"
  },
  {
    "OBJECT_NAME": "STARLINK-4332",
    "OBJECT_ID": "22084B",
    "EPOCH": "2025-11-11T03:25:01.203456",
    "MEAN_MOTION": 15.05654085,
    "ECCENTRICITY": 0.0001201,
    "INCLINATION": 97.6019,
    "RA_OF_ASC_NODE": 14.3577,
    "ARG_OF_PERICENTER": 100.7512,
    "MEAN_ANOMALY": 259.385,
    "EPHEMERIS_TYPE": 0,
    "CLASSIFICATION_TYPE": "U",
    "NORAD_CAT_ID": 53190,
    "ELEMENT_SET_NO": 999,
    "REV_AT_EPOCH": 18221,
    "BSTAR": 0.0,
    "MEAN_MOTION_DOT": -6.27e-06,
    "MEAN_MOTION_DDOT": 0.0,
    "TLE_LINE1": "1 53190U 22084B   25315.14237504 -.00000627  00000+0 -39252-4 0  9997",
    "TLE_LINE2": "2 53190  97.6019  14.3577 0001201 100.7512 259.3850 15.05654085182214",
    "COMMENT": "Grouped by shell and plane from TLE"
  },
  {
    "OBJECT_NAME": "STARLINK-4369",
    "OBJECT_ID": "22084C",
    "EPOCH": "2025-11-11T03:13:21.429120",
    "MEAN_MOTION": 15.01264468,
    "ECCENTRICITY": 0.0003259,
    "INCLINATION": 97.6045,
    "RA_OF_ASC_NODE": 14.1298,
    "ARG_OF_PERICENTER": 186.6177,
    "MEAN_ANOMALY": 173.5005,
    "EPHEMERIS_TYPE": 0,
    "CLASSIFICATION_TYPE": "U",
    "NORAD_CAT_ID": 53191,
    "ELEMENT_SET_NO": 999,
    "REV_AT_EPOCH": 18152,
    "BSTAR": 3.6817000000000003e-05,
    "MEAN_MOTION_DOT": 4.15e-06,
    "MEAN_MOTION_DDOT": 0.0,
    "TLE_LINE1": "1 53191U 22084C   25315.13427580  .00000415  00000+0  36817-4 0  9999",
    "TLE_LINE2": "2 53191  97.6045  14.1298 0003259 186.6177 173.5005 15.01264468181527",
    "COMMENT": "Grouped by shell and plane from TLE"
  },
  {
    "OBJECT_NAME": "STARLINK-4375",
    "OBJECT_ID": "22084D",
    "EPOCH": "2025-11-11T04:08:52.404000",
    "MEAN_MOTION": 15.0565777,
    "ECCENTRICITY": 0.0002163,
    "INCLINATION": 97.6031,
    "RA_OF_ASC_NODE": 14.3819,
    "ARG_OF_PERICENTER": 90.5392,
    "MEAN_ANOMALY": 269.6083,
    "EPHEMERIS_TYPE": 0,
    "CLASSIFICATION_TYPE": "U",
    "NORAD_CAT_ID": 53192,
    "ELEMENT_SET_NO": 999,
    "REV_AT_EPOCH": 18221,
    "BSTAR": 4.2665e-05,
    "MEAN_MOTION_DOT": 5.55e-06,
    "MEAN_MOTION_DDOT": 0.0,
    "TLE_LINE1": "1 53192U 22084D   25315.17282875  .00000555  00000+0  42665-4 0  9993",
    "TLE_LINE2": "2 53192  97.6031  14.3819 0002163  90.5392 269.6083 15.05657770182215",
    "COMMENT": "Grouped by shell and plane from TLE"
  }
]